Name of the neighborhood,Shleter Number,Address,Area,Type,Capacity,Operator,X-axis coordinates,Y axis coordinates,Address for the map,Administration,neighborhood,category
Beit Yisrael,841,"<a rel=""noopener"" href=""https://www.waze.com/ul?ll=31.79069840%2C35.22133660&amp;navigate=yes&amp;zoom=16"" target=""_blank"" data-anchor=""?ll=31.79069840%2C35.22133660&amp;navigate=yes&amp;zoom=16"">25 Yoel St.</a> ",100,,80,"""Mosiyof"" synagogue",31.79120318,35.22139609,25 Yoel St.,,,HaBucharim - Beit Yisrael
Beit Yisrael,908,"<a rel=""noopener"" href=""https://www.waze.com/ul?ll=31.79186860%2C35.22323570&amp;navigate=yes&amp;zoom=16"" target=""_blank"" data-anchor=""?ll=31.79186860%2C35.22323570&amp;navigate=yes&amp;zoom=16"">22 Shimshon Polanski St.</a> ",100,,80,Bucharim Community Administration,31.79208743,35.2232357,22 Shimshon Polanski St.,,,HaBucharim - Beit Yisrael
Talbiya,Public Shelter No. 807,"<a rel=""noopener"" href=""https://www.waze.com/ul?ll=31.77001220%2C35.21782930&amp;navigate=yes&amp;zoom=16"" target=""_blank"" data-anchor=""?ll=31.77001220%2C35.21782930&amp;navigate=yes&amp;zoom=16"">7 Benjamin Disraeli St.</a> ",115,,92,"Emergency and Security Division, Jerusalem Municipality",31.77014346,35.21700218,7 Benjamin Disraeli St.,,,Talbiya - Komemiyut
Sanhedria,Public Shelter No.602,"<a rel=""noopener"" href=""https://www.waze.com/ul?ll=31.79747430%2C35.21873600&amp;navigate=yes&amp;zoom=16"" target=""_blank"" data-anchor=""?ll=31.79747430%2C35.21873600&amp;navigate=yes&amp;zoom=16"">6 HaSanhedrin St.</a> ",100,Shelter,80,"""Hasidei Morditz"" yeshiva",31.79755634,35.21872527,6 HaSanhedrin St.,,,Sanhedria
"Shmuel HaNavi ",Public Shelter No.604,"<a rel=""noopener"" href=""https://www.waze.com/ul?ll=31.79568800%2C35.21879420&amp;navigate=yes&amp;zoom=16"" target=""_blank"" data-anchor=""?ll=31.79568800%2C35.21879420&amp;navigate=yes&amp;zoom=16"">8 Shimon Hacham St.</a> ",100,,80,"Emergency and Security Division, Jerusalem Municipality",31.795412149351016,35.2188737,8 Shimon Hacham St.,,,Shmuel HaNavi
Romema,Public Shelter No.606,"<a rel=""noopener"" href=""https://www.waze.com/ul?ll=31.79558840%2C35.21449380&amp;navigate=yes&amp;zoom=16"" target=""_blank"" data-anchor=""?ll=31.79558840%2C35.21449380&amp;navigate=yes&amp;zoom=16"">1 Pnina St.</a> ",80,,64,"Emergency and Security Division, Jerusalem Municipality",31.795624849266986,35.21447234627226,1 Pnina St.,,,Romema
"Bucharim ",Public Shelter No.609,"<a rel=""noopener"" href=""https://www.waze.com/ul?ll=31.79223540%2C35.21767550&amp;navigate=yes&amp;zoom=16?ll=31.79223540%2C35.21767550&amp;navigate=yes&amp;zoom=16"" target=""_blank"" data-anchor=""?ll=31.79223540%2C35.21767550&amp;navigate=yes&amp;zoom=16?ll=31.79223540%2C35.21767550&amp;navigate=yes&amp;zoom=16"">23 Yisa Bracha St.</a> ",250,"Shelter ",200,"Emergency and Security Division, Jerusalem Municipality",31.79229011,35.2176755,23 Yisa Bracha St.,,,HaBucharim - Beit Yisrael
Bukharim,Public Shelter No.612,"<a rel=""noopener"" href=""https://www.waze.com/ul?ll=31.78984170%2C35.22089090&amp;navigate=yes&amp;zoom=16?ll=31.78984170%2C35.22089090&amp;navigate=yes&amp;zoom=16"" target=""_blank"" data-anchor=""?ll=31.78984170%2C35.22089090&amp;navigate=yes&amp;zoom=16?ll=31.78984170%2C35.22089090&amp;navigate=yes&amp;zoom=16"">16 Yoel St.</a> ",50,Shelter,40,Karlin Hasidic community,31.78987955,35.22089024,16 Yoel St.,,,HaBucharim - Beit Yisrael
Shmuel HaNavi,Public Shelter No.616,"<a rel=""noopener"" href=""https://ul.waze.com/ul?place=ChIJu7pxf90pAxURLAhuO0f2chM&amp;ll=31.79247020%2C35.22314580&amp;navigate=yes&amp;utm_campaign=default&amp;utm_source=waze_website&amp;utm_medium=lm_share_location"" target=""_blank"" data-anchor=""?place=ChIJu7pxf90pAxURLAhuO0f2chM&amp;ll=31.79247020%2C35.22314580&amp;navigate=yes&amp;utm_campaign=default&amp;utm_source=waze_website&amp;utm_medium=lm_share_location"">61 Shmuel Hanavi St.</a> ",,Shelter,80,"Emergency and Security Division, Jerusalem Municipality",31.79249233140142,35.22309569,61 Shmuel Hanavi St.,,,Shmuel HaNavi
Shmuel HaNavi,Public Shelter No.618,"<a rel=""noopener"" href=""https://www.waze.com/ul?ll=31.79279960%2C35.22317870&amp;navigate=yes&amp;zoom=16"" target=""_blank"" data-anchor=""?ll=31.79279960%2C35.22317870&amp;navigate=yes&amp;zoom=16"">66 Shmuel HaNavi St.</a> ",110,,137,"""Ohalei Ya'akov"" synagogue ",31.792860731292258,35.22315682,66 Shmuel HaNavi St.,,,Shmuel HaNavi
Geula,Public Shelter No.621,"<a rel=""noopener"" href=""https://www.waze.com/ul?ll=31.78944350%2C35.21955760&amp;navigate=yes&amp;zoom=16"" target=""_blank"" data-anchor=""?ll=31.78944350%2C35.21955760&amp;navigate=yes&amp;zoom=16"">8 Hoshe'a St.</a> ",100,,80,"Emergency and Security Division, Jerusalem Municipality",31.78971852,35.2196259,8 Hoshe'a St.,,,Geula
Mea She'arim,Public Shelter No.632,"<a rel=""noopener"" href=""https://www.waze.com/ul?ll=31.78564640%2C35.22460790&amp;navigate=yes&amp;zoom=16"" target=""_blank"" data-anchor=""?ll=31.78564640%2C35.22460790&amp;navigate=yes&amp;zoom=16"">87 Me'a She'arim St.</a> ",80,Shelter,64,"Emergency and Security Division, Jerusalem Municipality",31.78581751,35.22459891,87 Me'a She'arim St.,,,Mea Shearim
Geula,Public Shelter No.637,"<a rel=""noopener"" href=""https://www.waze.com/ul?ll=31.78767970%2C35.21894860&amp;navigate=yes&amp;zoom=16"" target=""_blank"" data-anchor=""?ll=31.78767970%2C35.21894860&amp;navigate=yes&amp;zoom=16"">18 Nahman MiBreslev St.</a> ",100,,80,"Emergency and Security Division, Jerusalem Municipality",31.7877374,35.21997837,18 Nahman MiBreslev St.,,,Geula
City Center,Public Shelter No.639,"<a rel=""noopener"" href=""https://www.waze.com/ul?ll=31.78554110%2C35.21520460&amp;navigate=yes&amp;zoom=16"" target=""_blank"" data-anchor=""?ll=31.78554110%2C35.21520460&amp;navigate=yes&amp;zoom=16"">2 Michel Pines St.</a> ",250,,200,Degel Yerushalayim,31.785705163311736," 35.21512951956394",2 Michel Pines St.,,,City Center
Mekor Baruch,Public Shelter No.641,"<a rel=""noopener"" href=""https://www.waze.com/ul?ll=31.78913660%2C35.21372570&amp;navigate=yes&amp;zoom=16"" target=""_blank"" data-anchor=""?ll=31.78913660%2C35.21372570&amp;navigate=yes&amp;zoom=16"">25 Kfar Nahum St.</a> ",180,,144,"""HaMeor Nativ Kodesh"" organization",31.78927688,35.21424313,25 Kfar Nahum St.,,,Makor Baruch
"Mekor Baruch ",Public Shelter No.643,"<a rel=""noopener"" href=""https://www.waze.com/ul?ll=31.79037470%2C35.21093400&amp;navigate=yes&amp;zoom=16"" target=""_blank"" data-anchor=""?ll=31.79037470%2C35.21093400&amp;navigate=yes&amp;zoom=16"">73 Malkei Israel St.</a> ",400,,320,"Emergency and Security Division, Jerusalem Municipality",31.79060663,35.21083998,73 Malkei Israel St.,,,Makor Baruch
Mahane Yehuda,Public Shelter No.648,"<a rel=""noopener"" href=""https://www.waze.com/ul?ll=31.78341050%2C35.20962170&amp;navigate=yes&amp;zoom=16"" target=""_blank"" data-anchor=""?ll=31.78341050%2C35.20962170&amp;navigate=yes&amp;zoom=16"">15 Nahar Prat St.</a> ",236,,188,"Emergency and Security Division, Jerusalem Municipality",31.78336583,35.20939807,15 Nahar Prat St.,,,City Center
Nachlaot,Public Shelter No.657,"<a rel=""noopener"" href=""https://www.waze.com/ul?ll=31.77953990%2C35.21121990&amp;navigate=yes&amp;zoom=16"" target=""_blank"" data-anchor=""?ll=31.77953990%2C35.21121990&amp;navigate=yes&amp;zoom=16"">21 Tsfat St.</a> ",,,400,"Society Division of Jerusalem Municipality, ""Ariel"" youth movement ",31.77968218,35.21119735,21 Tsfat St.,,,Nachlaot - Lev Ha'ir
Rehavia,Public Shelter No.658,"<a rel=""noopener"" href=""https://www.waze.com/ul?ll=31.77552590%2C35.21402360&amp;navigate=yes&amp;zoom=16"" target=""_blank"" data-anchor=""?ll=31.77552590%2C35.21402360&amp;navigate=yes&amp;zoom=16"">13 Ibn Ezra St.</a> ",80,,64,"Emergency and Security Division, Jerusalem Municipality",31.775601398716745,35.21411710394585,13 Ibn Ezra St.,,,Rehavia
Rehavia,Public Shelter No.659,"<a rel=""noopener"" href=""https://www.waze.com/ul?ll=31.77508850%2C35.21529880&amp;navigate=yes&amp;zoom=16"" target=""_blank"" data-anchor=""?ll=31.77508850%2C35.21529880&amp;navigate=yes&amp;zoom=16"">15 Ibn Gabirol St.</a> ",160,,128,"Emergency and Security Division, Jerusalem Municipality",31.775111057369614,35.2153943174367,15 Ibn Gabirol St.,,,Rehavia
Kiryat Shmuel,Public Shelter No.667,"<a rel=""noopener"" href=""https://ul.waze.com/ul?place=ChIJqRFPadfXAhURTfNMjSFVJ2A&amp;ll=31.76747800%2C35.21103320&amp;navigate=yes&amp;utm_campaign=default&amp;utm_source=waze_website&amp;utm_medium=lm_share_location"" target=""_blank"" data-anchor=""?place=ChIJqRFPadfXAhURTfNMjSFVJ2A&amp;ll=31.76747800%2C35.21103320&amp;navigate=yes&amp;utm_campaign=default&amp;utm_source=waze_website&amp;utm_medium=lm_share_location"">22 HaPalmach St.</a> ",180,,144,"Emergency and Security Division, Jerusalem Municipality",31.767487095675378,35.211043932782616,22 HaPalmach St.,,,Kiryat Shmuel
,Public Shelter No.670,"<a rel=""noopener"" href=""https://www.waze.com/ul?ll=31.76545540%2C35.21291140&amp;navigate=yes&amp;zoom=16"" target=""_blank"" data-anchor=""?ll=31.76545540%2C35.21291140&amp;navigate=yes&amp;zoom=16"">9 Bostanai St.</a> ",140,Shelter,112,"Emergency and Security Division, Jerusalem Municipality",31.76565605,35.21287922,9 Bostanai St.,,,German Colony
Old Katamon,Public Shelter No.671,"<a rel=""noopener"" href=""https://ul.waze.com/ul?place=ChIJr7GH8dfXAhURbAYF-CIC8ro&amp;ll=31.76615520%2C35.21380620&amp;navigate=yes&amp;utm_campaign=default%2Cdefault&amp;utm_source=waze_website%2Cwaze_website&amp;utm_medium=lm_share_location"" target=""_blank"" data-anchor=""?place=ChIJr7GH8dfXAhURbAYF-CIC8ro&amp;ll=31.76615520%2C35.21380620&amp;navigate=yes&amp;utm_campaign=default%2Cdefault&amp;utm_source=waze_website%2Cwaze_website&amp;utm_medium=lm_share_location"">22 Kaf Tet BeNovember St.</a> ",160,,128,"Emergency and Security Division, Jerusalem Municipality",31.766167065640484,35.21380394627346,22 Kaf Tet BeNovember St.,,,"Gonenim - Katamonim, Accessible Shelter"
Emek Refaim,Public Shelter No.672,"<a rel=""noopener"" href=""https://www.waze.com/ul?ll=31.76495610%2C35.21729920&amp;navigate=yes&amp;zoom=16"" target=""_blank"" data-anchor=""?ll=31.76495610%2C35.21729920&amp;navigate=yes&amp;zoom=16"">10 Ruth St.</a> ",150,,120,"Emergency and Security Division, Jerusalem Municipality",31.76506375,35.21736907,10 Ruth St.,,,German Colony
Emek Refaim,Public Shelter No.673,"<a rel=""noopener"" href=""https://www.waze.com/ul?ll=31.76346690%2C35.21857070&amp;navigate=yes&amp;zoom=16"" target=""_blank"" data-anchor=""?ll=31.76346690%2C35.21857070&amp;navigate=yes&amp;zoom=16"">3 Malal St.</a> ",114,Shelter,91,"Emergency and Security Division, Jerusalem Municipality",31.78075326,35.21629892,3 Malal St.,,,German Colony
"Emek Refaim ",Public Shelter No.674,"<a rel=""noopener"" href=""https://ul.waze.com/ul?place=ChIJSd1N-_kpAxURhzRLw1T-FdE&amp;ll=31.76597870%2C35.21828410&amp;navigate=yes&amp;utm_campaign=default&amp;utm_source=waze_website&amp;utm_medium=lm_share_location"" target=""_blank"" data-anchor=""?place=ChIJSd1N-_kpAxURhzRLw1T-FdE&amp;ll=31.76597870%2C35.21828410&amp;navigate=yes&amp;utm_campaign=default&amp;utm_source=waze_website&amp;utm_medium=lm_share_location"">7 Bachar St.</a> ",150,,120,"Emergency and Security Division, Jerusalem Municipality",31.76617023,35.218209,7 Bachar St.,,,HaMoshava HaGermanit
Emek Refaim,Public Shelter No.676,"<a rel=""noopener"" href=""https://www.waze.com/ul?ll=31.76436110%2C35.22100730&amp;navigate=yes&amp;zoom=16"" target=""_blank"" data-anchor=""?ll=31.76436110%2C35.22100730&amp;navigate=yes&amp;zoom=16"">6 Emile Zola St.</a> ",100,,80,"Emergency and Security Division, Jerusalem Municipality",31.76455263,35.22099657,6 Emile Zola St.,,,German Colony
Emek Refaim,Public Shelter No.677,"<a rel=""noopener"" href=""https://www.waze.com/ul?ll=31.76362400%2C35.22109630&amp;navigate=yes&amp;zoom=16"" target=""_blank"" data-anchor=""?ll=31.76362400%2C35.22109630&amp;navigate=yes&amp;zoom=16"">6 Wyndham Deedes St.</a> ",290,,232,"Emergency and Security Division, Jerusalem Municipality",31.76403005,35.22126489,6 Wyndham Deedes St.,,,German Colony
Talpiot,Public Shelter No.679,"<a rel=""noopener"" href=""https://www.waze.com/ul?ll=31.76344980%2C35.22545390&amp;navigate=yes&amp;zoom=16"" target=""_blank"" data-anchor=""?ll=31.76344980%2C35.22545390&amp;navigate=yes&amp;zoom=16"">59 Hebron Rd.</a> ",200,,160,"Emergency and Security Division, Jerusalem Municipality",31.763436661978776,35.2256433,59 Hebron Rd.,,,Talpiyot - Arnona
Baka,Public Shelter No.681,"<a rel=""noopener"" href=""https://ul.waze.com/ul?place=ChIJZfgatiYoAxURNuZXb0gVP9k&amp;ll=31.75939280%2C35.21896830&amp;navigate=yes&amp;utm_campaign=default%2Cdefault&amp;utm_source=waze_website%2Cwaze_website&amp;utm_medium=lm_share_location"" target=""_blank"" data-anchor=""?place=ChIJZfgatiYoAxURNuZXb0gVP9k&amp;ll=31.75939280%2C35.21896830&amp;navigate=yes&amp;utm_campaign=default%2Cdefault&amp;utm_source=waze_website%2Cwaze_website&amp;utm_medium=lm_share_location"">8 Efrayim St.</a> ",100,,80,"Emergency and Security Division, Jerusalem Municipality",31.75959347,35.2189683,8 Efrayim St.,,,Baka
Baka,Public Shelter No.682,"<a rel=""noopener"" href=""https://www.waze.com/ul?ll=31.75935280%2C35.21890230&amp;navigate=yes&amp;zoom=16"" target=""_blank"" data-anchor=""?ll=31.75935280%2C35.21890230&amp;navigate=yes&amp;zoom=16"">14 Reuven St.</a> ",135,,108,"Emergency and Security Division, Jerusalem Municipality",31.75951784,35.2188286,14 Reuven St.,,,Baka
Baka,Public Shelter No.683,"<a rel=""noopener"" href=""https://www.waze.com/ul?ll=31.75982140%2C35.22352620&amp;navigate=yes&amp;zoom=16"" target=""_blank"" data-anchor=""?ll=31.75982140%2C35.22352620&amp;navigate=yes&amp;zoom=16"">54 Hebron Rd.</a> ",170,,136,"Emergency and Security Division, Jerusalem Municipality",31.76002206,35.2235262,54 Hebron Rd.,,,Baka
Baka,Public Shelter No.684,"<a rel=""noopener"" href=""https://goo.gl/maps/DBvHPN7VXXp?ll=31.75982140%2C35.22352620&amp;navigate=yes&amp;zoom=16"" target=""_blank"" data-anchor=""?ll=31.75982140%2C35.22352620&amp;navigate=yes&amp;zoom=16"">6 Esther HaMalka St.</a> ",295,,236,"Emergency and Security Division, Jerusalem Municipality",31.758750,35.222640,6 Esther HaMalka St.,,,Baka
Baka,Public Shelter No.685,"<a rel=""noopener"" href=""https://www.waze.com/ul?ll=31.75702360%2C35.22194250&amp;navigate=yes&amp;zoom=16"" target=""_blank"" data-anchor=""?ll=31.75702360%2C35.22194250&amp;navigate=yes&amp;zoom=16"">6 Mordechai HaYehudi St.</a> ",200,,160,"Emergency and Security Division, Jerusalem Municipality",31.75722449,35.22199465,6 Mordechai HaYehudi St.,,,Baka
Talpiot,Public Shelter No.688,"<a rel=""noopener"" href=""https://www.waze.com/ul?ll=31.75255220%2C35.22187030&amp;navigate=yes&amp;zoom=16"" target=""_blank"" data-anchor=""?ll=31.75255220%2C35.22187030&amp;navigate=yes&amp;zoom=16"">18 Efrata St.</a> ",200,,160,"Emergency and Security Division, Jerusalem Municipality",31.752546089319623,35.22182315,18 Efrata St.,,,Talpiyot - Arnona
Talpiot,Public Shelter No.689,"<a rel=""noopener"" href=""https://ul.waze.com/ul?place=EiRCZW4gR2F2cmllbCBTdCAxMCwgSmVydXNhbGVtLCBJc3JhZWwiMBIuChQKEgnhMXQxGSgDFRFagfdZzXwTkBAKKhQKEgkrfJE2GSgDFRENScS7vvQR_A&amp;ll=31.75021310%2C35.22088390&amp;navigate=yes&amp;utm_campaign=default%2Cdefault&amp;utm_source=waze_website%2Cwaze_website&amp;utm_medium=lm_share_location"" target=""_blank"" data-anchor=""?place=EiRCZW4gR2F2cmllbCBTdCAxMCwgSmVydXNhbGVtLCBJc3JhZWwiMBIuChQKEgnhMXQxGSgDFRFagfdZzXwTkBAKKhQKEgkrfJE2GSgDFRENScS7vvQR_A&amp;ll=31.75021310%2C35.22088390&amp;navigate=yes&amp;utm_campaign=default%2Cdefault&amp;utm_source=waze_website%2Cwaze_website&amp;utm_medium=lm_share_location"">10 Ben Gavriel St.</a> ",90,,72,"Emergency and Security Division, Jerusalem Municipality",31.749094780609962,35.2200234,10 Ben Gavriel St.,,,Talpiyot - Arnona
Talpiot,Public Shelter No.690,"<a rel=""noopener"" href=""https://ul.waze.com/ul?venue_id=23068989.230820967.255811&amp;overview=yes&amp;utm_campaign=default&amp;utm_source=waze_website&amp;utm_medium=lm_share_location"" target=""_blank"" data-anchor=""?venue_id=23068989.230820967.255811&amp;overview=yes&amp;utm_campaign=default&amp;utm_source=waze_website&amp;utm_medium=lm_share_location"">1 Leib Yaffe St.</a> ",240,,192,"Emergency and Security Division, Jerusalem Municipality",31.74919744,35.2234383,"1 Leib Yaffe St., jerusalem",,,Talpiyot - Arnona
Talpiot,Public Shelter No.691,"<a rel=""noopener"" href=""https://ul.waze.com/ul?ll=31.75189020%2C35.21884540&amp;navigate=yes&amp;utm_campaign=default&amp;utm_source=waze_website&amp;utm_medium=lm_share_location?ll=31.75177480%2C35.21944020&amp;navigate=yes&amp;zoom=16"" target=""_blank"" data-anchor=""?ll=31.75177480%2C35.21944020&amp;navigate=yes&amp;zoom=16"">93 Bethlehem Rd.</a> ",440,,352,"Emergency and Security Division, Jerusalem Municipality",31.752087774115857,35.21891075,93 Bethlehem Rd.,,,Talpiyot - Arnona
Emek Refaim,Public Shelter No.693,"<a rel=""noopener"" href=""https://ul.waze.com/ul?place=ChIJ9b5pgtjXAhURt4V9xghL4h4&amp;ll=31.76251050%2C35.21476740&amp;navigate=yes&amp;utm_campaign=default%2Cdefault&amp;utm_source=waze_website%2Cwaze_website&amp;utm_medium=lm_share_location"" target=""_blank"" data-anchor=""?place=ChIJ9b5pgtjXAhURt4V9xghL4h4&amp;ll=31.76251050%2C35.21476740&amp;navigate=yes&amp;utm_campaign=default%2Cdefault&amp;utm_source=waze_website%2Cwaze_website&amp;utm_medium=lm_share_location"">9 Yotam St.</a> ",170,,136,"Emergency and Security Division, Jerusalem Municipality",31.76274013,35.21468592,9 Yotam St.,,,German Colony
German Colony,Public Shelter No.695,"<a rel=""noopener"" href=""https://www.waze.com/ul?ll=31.76225270%2C35.21485970&amp;navigate=yes&amp;zoom=16"" target=""_blank"" data-anchor=""?ll=31.76225270%2C35.21485970&amp;navigate=yes&amp;zoom=16"">2 Amatsiya St.</a> ",250,,200,Chabad synagogue,31.76231446,35.21556613,2 Amatsiya St.,,,German Colony
Old Katamon,"Public Shelter No.696 ","<a rel=""noopener"" href=""https://www.waze.com/ul?ll=31.76109180%2C35.21334270&amp;navigate=yes&amp;zoom=16"" target=""_blank"" data-anchor=""?ll=31.76109180%2C35.21334270&amp;navigate=yes&amp;zoom=16"">3 Reish Lakish St.</a> ",164,,131,"Emergency and Security Division, Jerusalem Municipality",31.76129246,35.21325687,3 Reish Lakish St.,,,Gonenim - Katamonim
Emek Refaim,Public Shelter No.697,"<a rel=""noopener"" href=""https://www.waze.com/ul?ll=31.76055700%2C35.21525000&amp;navigate=yes&amp;zoom=16"" target=""_blank"" data-anchor=""?ll=31.76055700%2C35.21525000&amp;navigate=yes&amp;zoom=16"">27 Yehoshua Bin Nun St.</a> ",160,,128,"Emergency and Security Division, Jerusalem Municipality",31.76069919,35.21523335,27 Yehoshua Bin Nun St.,,,German Colony
Old Katamon&nbsp;,Public Shelter No.703,"<a rel=""noopener"" href=""https://www.waze.com/ul?ll=31.75604300%2C35.20517330&amp;navigate=yes&amp;zoom=16"" target=""_blank"" data-anchor=""?ll=31.75604300%2C35.20517330&amp;navigate=yes&amp;zoom=16"">53 Yohanan Ben Zakai St.</a> ",170,,136,"""Zchut Avot"" synagogue",31.7563287,35.20489024,53 Yohanan Ben Zakai St.,,,Gonenim - Katamonim
Giv'at Havradim (Rassco),Public Shelter No.715,"<a rel=""noopener"" href=""https://goo.gl/maps/wPX1uqTVmXT2?ll=31.78996270%2C35.21151270&amp;navigate=yes&amp;zoom=16"" target=""_blank"" data-anchor=""?ll=31.78996270%2C35.21151270&amp;navigate=yes&amp;zoom=16"">52 David Shimoni St.</a> ",180,,144,"Emergency and Security Division, Jerusalem Municipality",31.761363718452447,35.20108822,52 David Shimoni St.,,,Rassco - Givat HaVradim
Katamon,Public Shelter No.718,"<a rel=""noopener"" href=""https://ul.waze.com/ul?ll=31.75369450%2C35.19495770&amp;navigate=yes&amp;utm_campaign=default&amp;utm_source=waze_website&amp;utm_medium=lm_share_location"" target=""_blank"" data-anchor=""?ll=31.75369450%2C35.19495770&amp;navigate=yes&amp;utm_campaign=default&amp;utm_source=waze_website&amp;utm_medium=lm_share_location"">6 Rabbi Tzadok St.</a> ",120,,96,Gonenim Community Administration,31.75450818,35.19382965,6 Rabbi Tzadok St.,,,Gonenim - Katamonim
Kiryat HaYovel,Public Shelter No.721,"<a rel=""noopener"" href=""https://www.waze.com/ul?ll=31.75548920%2C35.17729790&amp;navigate=yes&amp;zoom=16"" target=""_blank"" data-anchor=""?ll=31.75548920%2C35.17729790&amp;navigate=yes&amp;zoom=16"">29 Uruguay St.</a> ",130,,104,"Community Administration, Public Health Division, Jerusalem Municipality",31.755479951365427,35.17732316161951,29 Uruguay St.,,,Kiryat Yovel
Kiryat HaYovel,Public Shelter No.722,"<a rel=""noopener"" href=""https://www.waze.com/ul?ll=31.75637470%2C35.17665450&amp;navigate=yes&amp;zoom=16"" target=""_blank"" data-anchor=""?ll=31.75637470%2C35.17665450&amp;navigate=yes&amp;zoom=16"">67 Avraham Stern St.</a> ",130,,104,"Emergency and Security Division, Jerusalem Municipality",31.756374674113907,35.17666523278302,67 Avraham Stern St.,,,Kiryat Yovel
Kiryat HaYovel,Public Shelter No.723,"<a rel=""noopener"" href=""https://www.waze.com/ul?ll=31.75340830%2C35.17668960&amp;navigate=yes&amp;zoom=16"" target=""_blank"" data-anchor=""?ll=31.75340830%2C35.17668960&amp;navigate=yes&amp;zoom=16"">51 Avraham Stern St.</a> ",130,,104,"Emergency and Security Division, Jerusalem Municipality",31.75424528,35.17664425,51 Avraham Stern St.,,,"Kiryat Yovel, Accessible Shelter"
"Kiryat HaYovel ",Public Shelter No.724,"<a rel=""noopener"" href=""https://ul.waze.com/ul?place=ChIJdyRIaYrXAhURPNretZHvuoQ&amp;ll=31.75819100%2C35.17760710&amp;navigate=yes&amp;utm_campaign=default%2Cdefault&amp;utm_source=waze_website%2Cwaze_website&amp;utm_medium=lm_share_location"" target=""_blank"" data-anchor=""?place=ChIJdyRIaYrXAhURPNretZHvuoQ&amp;ll=31.75819100%2C35.17760710&amp;navigate=yes&amp;utm_campaign=default%2Cdefault&amp;utm_source=waze_website%2Cwaze_website&amp;utm_medium=lm_share_location"">9 Volta Ilit St.</a> ",90,,72,"Emergency and Security Division, Jerusalem Municipality",31.75837336,35.17758566,9 Volta Ilit St.,,,Kiryat Yovel
Ir Ganim,Public Shelter No.726,"<a rel=""noopener"" href=""https://www.waze.com/ul?ll=31.75274090%2C35.17059330&amp;navigate=yes&amp;utm_campaign=default&amp;utm_source=waze_website&amp;utm_medium=lm_share_location"" target=""_blank"" data-anchor=""?ll=31.75274090%2C35.17059330&amp;navigate=yes&amp;utm_campaign=default&amp;utm_source=waze_website&amp;utm_medium=lm_share_location"">123 HaNurit St.</a> ",350,,280,"Emergency and Security Division, Jerusalem Municipality",31.75304368,35.17212095,123 HaNurit St.,,,Ir Ganim
"Eir Ganim ",Public Shelter No.726 A,"<a rel=""noopener"" href=""https://ul.waze.com/ul?ll=31.75250820%2C35.17107770&amp;navigate=yes&amp;utm_campaign=default&amp;utm_source=waze_website&amp;utm_medium=lm_share_location"" target=""_blank"" data-anchor=""?ll=31.75250820%2C35.17107770&amp;navigate=yes&amp;utm_campaign=default&amp;utm_source=waze_website&amp;utm_medium=lm_share_location"">124 HaNurit St.</a> ",120,,80,"Emergency and Security Division, Jerusalem Municipality",31.75270968,35.17106527,124 HaNurit St.,,,Ir Ganim
"Eir Ganim ",Public Shelter No.726 B,"<a rel=""noopener"" href=""https://ul.waze.com/ul?place=ChIJzQ612oHXAhURnoWZamTgVGQ&amp;ll=31.75234100%2C35.17155200&amp;navigate=yes&amp;utm_campaign=default&amp;utm_source=waze_website&amp;utm_medium=lm_share_location"" target=""_blank"" data-anchor=""?place=ChIJzQ612oHXAhURnoWZamTgVGQ&amp;ll=31.75234100%2C35.17155200&amp;navigate=yes&amp;utm_campaign=default&amp;utm_source=waze_website&amp;utm_medium=lm_share_location"">125 HaNurit St.</a> ",120,,96,"Emergency and Security Division, Jerusalem Municipality",31.75252344,35.171552,125 HaNurit St.,,,Ir Ganim
Ir Ganim&nbsp;,Public Shelter No.727,"<a rel=""noopener"" href=""https://www.waze.com/ul?ll=31.75358540%2C35.17104630&amp;navigate=yes&amp;zoom=16"" target=""_blank"" data-anchor=""?ll=31.75358540%2C35.17104630&amp;navigate=yes&amp;zoom=16"">104 HaNurit St.</a> ",120,,148,"Emergency and Security Division, Jerusalem Municipality",31.75457225,35.17056825,104 HaNurit St.,,,Ir Ganim
Ir Ganim,Public Shelter No.728,"<a rel=""noopener"" href=""https://www.waze.com/live-map/directions?navigate=yes&amp;to=ll.31.753476%2C35.1711774"" target=""_blank"" data-anchor=""?navigate=yes&amp;to=ll.31.753476%2C35.1711774"">102 HaNurit St.</a> ",183,,148,"Emergency and Security Division, Jerusalem Municipality",31.754851,35.17017787,102 HaNurit St.,,,Ir Ganim
Kiryat Menachem,Public Shelter No.729,"<a rel=""noopener"" href=""https://www.waze.com/ul?ll=31.75593850%2C35.16587680&amp;navigate=yes&amp;zoom=16"" target=""_blank"" data-anchor=""?ll=31.75593850%2C35.16587680&amp;navigate=yes&amp;zoom=16"">7 Dahomey St.</a> ",250,,200,Ganim Community Administration,31.75615742,35.1658768,7 Dahomey St.,,,Kiryat Menachem
Kiryat Menachem,Public Shelter No.730,"<a rel=""noopener"" href=""https://ul.waze.com/ul?place=ChIJL0C2OHnXAhURTM92rdLO7H8&amp;ll=31.75653780%2C35.16683050&amp;navigate=yes&amp;utm_campaign=default%2Cdefault&amp;utm_source=waze_website%2Cwaze_website&amp;utm_medium=lm_share_location"" target=""_blank"" data-anchor=""?place=ChIJL0C2OHnXAhURTM92rdLO7H8&amp;ll=31.75653780%2C35.16683050&amp;navigate=yes&amp;utm_campaign=default%2Cdefault&amp;utm_source=waze_website%2Cwaze_website&amp;utm_medium=lm_share_location"">3 Dahomey St.</a> ",196,,156,"""Magen David"" synagogue",31.75827574153875,35.16679340394644,3 Dahomey St.,,,Kiryat Menachem
Kiryat Menachem,Public Shelter No.734,"<a rel=""noopener"" href=""https://www.waze.com/ul?ll=31.75949260%2C35.16539450&amp;navigate=yes&amp;zoom=16"" target=""_blank"" data-anchor=""?ll=31.75949260%2C35.16539450&amp;navigate=yes&amp;zoom=16"">17 Iceland St.</a> ",130,,104,"Emergency and Security Division, Jerusalem Municipality",31.75967074,35.16537727,17 Iceland St.,,,"Kiryat Menachem, Accessible Shelter"
Kiryat Menachem,Public Shelter No.734 A,"<a rel=""noopener"" href=""https://www.waze.com/ul?ll=31.75949260%2C35.16539450&amp;navigate=yes&amp;zoom=16"" target=""_blank"" data-anchor=""?ll=31.75949260%2C35.16539450&amp;navigate=yes&amp;zoom=16"">17 Iceland St.</a> ",170,,136,"Emergency and Security Division, Jerusalem Municipality",31.75967074,35.16537727,17 Iceland St.,,,"Kiryat Menachem, Accessible Shelter"
Kiryat HaYovel,Public Shelter No.736,"<a rel=""noopener"" href=""https://www.waze.com/ul?ll=31.76052380%2C35.17046580&amp;navigate=yes&amp;zoom=16"" target=""_blank"" data-anchor=""?ll=31.76052380%2C35.17046580&amp;navigate=yes&amp;zoom=16"">8 Chile St.</a> ",200,,160,Yuvalim Community Administration,31.76074271,35.1704658,8 Chile St.,,,Kiryat Yovel
Kiryat HaYovel,Public Shelter No.737,"<a rel=""noopener"" href=""https://www.waze.com/ul?ll=31.75984730%2C35.17217080&amp;navigate=yes&amp;zoom=16"" target=""_blank"" data-anchor=""?ll=31.75984730%2C35.17217080&amp;navigate=yes&amp;zoom=16"">32 Janus Korczak St.</a> ",150,,120,"""Mishkan Mordechai"" synagogue",31.76016281,35.1720983,32 Janus Korczak St.,,,"Kiryat Yovel, Accessible Shelter"
Kiryat HaYovel,Public Shelter No.738,"<a rel=""noopener"" href=""https://www.waze.com/ul?ll=31.76316000%2C35.17319900&amp;navigate=yes&amp;zoom=16?ll=31.76316000%2C35.17319900&amp;navigate=yes&amp;zoom=16"" target=""_blank"" data-anchor=""?ll=31.76316000%2C35.17319900&amp;navigate=yes&amp;zoom=16"">78 Anielewicz St.</a> ",90,,72,"""Bnei Akiva"" youth movement",31.76217764,35.17317009,78 Anielewicz St.,,,Kiryat Yovel
"Kiryat HaYovel ",Public Shelter No.739,"<a rel=""noopener"" href=""https://www.waze.com/ul?ll=31.76593340%2C35.17605680&amp;navigate=yes&amp;zoom=16"" target=""_blank"" data-anchor=""?ll=31.76593340%2C35.17605680&amp;navigate=yes&amp;zoom=16"">3 Schmorak St.</a> ",90,,72,"Jerusalem Municipality's Society Division, ""Hashomer Hatzair"" youth movement ",31.76613405,35.17604607,3 Schmorak St.,,,Kiryat Yovel
Kiryat HaYovel,Public Shelter No.741,"<a rel=""noopener"" href=""https://ul.waze.com/ul?place=EidJc3JhZWwgWmFuZ3ZpbGwgU3QgNSwgSmVydXNhbGVtLCBJc3JhZWwiMBIuChQKEglhFh1xotcCFRFtB0gH5wU2kRAFKhQKEgnjZ3TEmNcCFRGlVBnUUJAP9g&amp;ll=31.76717800%2C35.17830100&amp;navigate=yes&amp;utm_campaign=default&amp;utm_source=waze_website&amp;utm_medium=lm_share_location?ll=31.76739980%2C35.17825480&amp;navigate=yes&amp;zoom=16"" target=""_blank"" data-anchor=""?ll=31.76739980%2C35.17825480&amp;navigate=yes&amp;zoom=16"">5 Yisrael Zangvill St.</a> ",90,Shelter,72,"Emergency and Security Division, Jerusalem Municipality",31.767223582079748,35.17830100394625,5 Yisrael Zangvill St.,,,Kiryat Yovel
Bayit VeGan,Public Shelter No.742,"<a rel=""noopener"" href=""https://goo.gl/maps/rnoVPRLtCRr?ll=31.75734040%2C35.22089700&amp;navigate=yes&amp;zoom=16"" target=""_blank"" data-anchor=""?ll=31.75734040%2C35.22089700&amp;navigate=yes&amp;zoom=16"">7 Sha'arei Tora St.</a> ",270,,216,"Emergency and Security Division, Jerusalem Municipality",31.76591212,35.18298046,7 Sha'arei Tora St.,,,Bayit VeGan
Bayit VeGan,Public Shelter No.743,"<a rel=""noopener"" href=""https://www.waze.com/ul?ll=31.76566530%2C35.18285900&amp;navigate=yes&amp;zoom=16"" target=""_blank"" data-anchor=""?ll=31.76566530%2C35.18285900&amp;navigate=yes&amp;zoom=16"">39 Bayit VaGan St.</a> ",115,,92,"Emergency and Security Division, Jerusalem Municipality",31.76926455,35.18451955,39 Bayit VaGan St.,,,Bayit VeGan
Beit HaKerem,Public Shelter No.744,"<a rel=""noopener"" href=""https://ul.waze.com/ul?place=ChIJLcCiqLfXAhUR_SxxejzKonQ&amp;ll=31.77501350%2C35.19041570&amp;navigate=yes&amp;utm_campaign=default%2Cdefault&amp;utm_source=waze_website%2Cwaze_website&amp;utm_medium=lm_share_location"" target=""_blank"" data-anchor=""?place=ChIJLcCiqLfXAhUR_SxxejzKonQ&amp;ll=31.77501350%2C35.19041570&amp;navigate=yes&amp;utm_campaign=default%2Cdefault&amp;utm_source=waze_website%2Cwaze_website&amp;utm_medium=lm_share_location"">4 HaBanai St.</a> ",170,,136,"Emergency and Security Division, Jerusalem Municipality",31.77512976,35.19041839,4 HaBanai St.,,,Beit HaKerem
Beit HaKerem,Public Shelter No.745,"<a rel=""noopener"" href=""https://www.waze.com/ul?ll=31.77748050%2C35.19221930&amp;navigate=yes&amp;zoom=16?ll=31.77748050%2C35.19221930&amp;navigate=yes&amp;zoom=16?ll=31.77748050%2C35.19221930&amp;navigate=yes&amp;zoom=16"" target=""_blank"" data-anchor=""?ll=31.77748050%2C35.19221930&amp;navigate=yes&amp;zoom=16?ll=31.77748050%2C35.19221930&amp;navigate=yes&amp;zoom=16?ll=31.77748050%2C35.19221930&amp;navigate=yes&amp;zoom=16"">30 HaBanai St.</a> ",170​,,136,"Emergency and Security Division, Jerusalem Municipality",31.7775352,35.1922193,30 HaBanai St.,,,Beit HaKerem
Kiryat Moshe,Public Shelter No.748,"<a rel=""noopener"" href=""https://www.waze.com/ul?ll=31.78791710%2C35.19552270&amp;navigate=yes&amp;zoom=16"" target=""_blank"" data-anchor=""?ll=31.78791710%2C35.19552270&amp;navigate=yes&amp;zoom=16"">2 Ha'ilui St.</a> ",134,,107,"Emergency and Security Division, Jerusalem Municipality",31.78803628,35.19554033,2 Ha'ilui St.    ,,,Kiryat Moshe
Romema,Public Shelter No.750,"<a rel=""noopener"" href=""https://ul.waze.com/ul?place=ChIJTyywYDzWAhURQrtyZ5Wv-EE&amp;ll=31.79594850%2C35.20085500&amp;navigate=yes&amp;utm_campaign=default%2Cdefault&amp;utm_source=waze_website%2Cwaze_website&amp;utm_medium=lm_share_location"" target=""_blank"" data-anchor=""?place=ChIJTyywYDzWAhURQrtyZ5Wv-EE&amp;ll=31.79594850%2C35.20085500&amp;navigate=yes&amp;utm_campaign=default%2Cdefault&amp;utm_source=waze_website%2Cwaze_website&amp;utm_medium=lm_share_location"">5 Zichron Ya'akov St.</a> ",130,,104,Romema Community Administration,31.79611804,35.20083957,5 Zichron Ya'akov St.,,,Romema
Morasha,Public Shelter No.751,"<a rel=""noopener"" href=""https://ul.waze.com/ul?place=EhtIYUF5aW4gSGV0IFN0IDEwLCBKZXJ1c2FsZW0iMBIuChQKEgkjj043xSkDFRHhsRby5vQIpxAKKhQKEgmrwsBcxSkDFRHpjYkmcKTjkg&amp;ll=31.78297850%2C35.22627060&amp;navigate=yes&amp;utm_campaign=default%2Cdefault&amp;utm_source=waze_website%2Cwaze_website&amp;utm_medium=lm_share_location"" target=""_blank"" data-anchor=""?place=EhtIYUF5aW4gSGV0IFN0IDEwLCBKZXJ1c2FsZW0iMBIuChQKEgkjj043xSkDFRHhsRby5vQIpxAKKhQKEgmrwsBcxSkDFRHpjYkmcKTjkg&amp;ll=31.78297850%2C35.22627060&amp;navigate=yes&amp;utm_campaign=default%2Cdefault&amp;utm_source=waze_website%2Cwaze_website&amp;utm_medium=lm_share_location"">10 HaAyin Het St.</a> ",,,80,Musrara photography school ,31.783101414895757,35.22640406779709,10 HaAyin Het St.,,,Musrara - Morasha
Morasha,Public Shelter No.752,"<a rel=""noopener"" href=""https://www.waze.com/ul?ll=31.78133530%2C35.22679420&amp;navigate=yes&amp;zoom=16"" target=""_blank"" data-anchor=""?ll=31.78133530%2C35.22679420&amp;navigate=yes&amp;zoom=16"">21 HaAyin Het St.</a> ",100,Shelter,80,Musrara photography school ,31.781545038473322,35.22675128802577,21 HaAyin Het St.,,,Musrara - Morasha
Morasha,Public Shelter No.753,"<a rel=""noopener"" href=""https://www.waze.com/ul?ll=31.78575030%2C35.22712230&amp;navigate=yes&amp;zoom=16"" target=""_blank"" data-anchor=""?ll=31.78575030%2C35.22712230&amp;navigate=yes&amp;zoom=16"">16 Kheil HaHandasa St.</a> ",100,,80,Eshkolot Community Administration,31.78579592,35.2270983,16 Kheil HaHandasa St.,,,Musrara - Morasha
Katamon,Public Shelter No.755,"<a rel=""noopener"" href=""https://www.waze.com/ul?ll=31.75589460%2C35.19546320&amp;navigate=yes&amp;zoom=16"" target=""_blank"" data-anchor=""?ll=31.75589460%2C35.19546320&amp;navigate=yes&amp;zoom=16"">3 Dov Hoz St.</a> ",100,,80,"Jerusalem Municipality, Culture Department - Artist Victor Raubinov",31.75640292,35.19666642,3 Dov Hoz St.,,,Gonenim - Katamonim
Katamon,Public Shelter No.756,"<a rel=""noopener"" href=""https://www.waze.com/he/live-map/directions/%D7%A1%D7%9F-%D7%9E%D7%A8%D7%98%D7%99%D7%9F-1-%D7%99%D7%A8%D7%95%D7%A9%D7%9C%D7%99%D7%9D?to=place.w.23068990.230624360.540726"" target=""_blank"" data-anchor=""?to=place.w.23068990.230624360.540726"">1 San Martin St.</a> ",100,,80,"""Torah BeTziyon Tzedek"" youth movement",31.75628558,35.1946299,1 San Martin St.,,,Gonenim - Katamonim
Katamon,Public Shelter No.757,"<a rel=""noopener"" href=""https://ul.waze.com/ul?place=EiBIYVNob21lciBTdCA1LCBKZXJ1c2FsZW0sIElzcmFlbCIwEi4KFAoSCRM73wXs1wIVERbJZ_Zebcq9EAUqFAoSCaWRVxPs1wIVEXnE1A94CFS_&amp;ll=31.75551790%2C35.19782000&amp;navigate=yes&amp;utm_campaign=default&amp;utm_source=waze_website&amp;utm_medium=lm_share_location"" target=""_blank"" data-anchor=""?place=EiBIYVNob21lciBTdCA1LCBKZXJ1c2FsZW0sIElzcmFlbCIwEi4KFAoSCRM73wXs1wIVERbJZ_Zebcq9EAUqFAoSCaWRVxPs1wIVEXnE1A94CFS_&amp;ll=31.75551790%2C35.19782000&amp;navigate=yes&amp;utm_campaign=default&amp;utm_source=waze_website&amp;utm_medium=lm_share_location"">5 HaShomer St. &nbsp;</a> ",100,,80,"Jerusalem Municipality, Department for the Advancement of Youth and Young People (Youth Club)",31.75571857,35.19787365,5 HaShomer St.  ,,,Gonenim - Katamonim
Kiryat Menachem,Public Shelter No.803,"<a rel=""noopener"" href=""https://ul.waze.com/ul?place=ChIJnX4AwXnXAhURe_DTu4hDhdo&amp;ll=31.75950550%2C35.16694380&amp;navigate=yes&amp;utm_campaign=default&amp;utm_source=waze_website&amp;utm_medium=lm_share_location?ll=31.76052490%2C35.16441700&amp;navigate=yes&amp;zoom=16"" target=""_blank"" data-anchor=""?ll=31.76052490%2C35.16441700&amp;navigate=yes&amp;zoom=16"">17 Henrietta Szold St.</a> ",113,,90,"""Darchei Hayim"" yeshiva (dining room)",31.75954196351599,35.166911617437314,17 Henrietta Szold St.,,,Kiryat Menachem
Emek Refaim,Public Shelter No.804,"<a rel=""noopener"" href=""https://www.waze.com/ul?ll=31.76468940%2C35.21961580&amp;navigate=yes&amp;zoom=16"" target=""_blank"" data-anchor=""?ll=31.76468940%2C35.21961580&amp;navigate=yes&amp;zoom=16"">8 HaMelits St.</a> ",100,,80,"Emergency and Security Division, Jerusalem Municipality",31.76488511,35.21965502,8 HaMelits St.,,,German Colony
Katamon,Public Shelter No.805,"<a rel=""noopener"" href=""https://www.waze.com/ul?ll=31.76221390%2C35.21078690&amp;navigate=yes&amp;zoom=16"" target=""_blank"" data-anchor=""?ll=31.76221390%2C35.21078690&amp;navigate=yes&amp;zoom=16"">21 Yordei HaSira St.</a> ",370,,296,"Emergency and Security Division, Jerusalem Municipality",31.76235525,35.21082471,21 Yordei HaSira St.,,,Gonenim - Katamonim
Givat Shaul,Public Shelter No.808,"<a rel=""noopener"" href=""https://www.waze.com/ul?ll=31.79070810%2C35.19171290&amp;navigate=yes&amp;zoom=16"" target=""_blank"" data-anchor=""?ll=31.79070810%2C35.19171290&amp;navigate=yes&amp;zoom=16"">27 Yisrael Najara St.</a> ",100,,80,Meitarim Community Administration,31.79066778,35.19194561,27 Yisrael Najara St.,,,Givat Shaul
Rehavia,Public Shelter No.809,"<a rel=""noopener"" href=""https://www.waze.com/ul?ll=31.77329210%2C35.21079110&amp;navigate=yes&amp;zoom=16"" target=""_blank"" data-anchor=""?ll=31.77329210%2C35.21079110&amp;navigate=yes&amp;zoom=16"">9 Rashba St.</a> ",90,,72,"Emergency and Security Division, Jerusalem Municipality",31.77325643710173,35.2107287751096,9 Rashba St.,,,Rehavia
Rehavia,Public Shelter No.810,"<a rel=""noopener"" href=""https://www.waze.com/ul?ll=31.77310490%2C35.21664660&amp;navigate=yes&amp;zoom=16"" target=""_blank"" data-anchor=""?ll=31.77310490%2C35.21664660&amp;navigate=yes&amp;zoom=16"">9 Ovadia MeBartenora St.</a> ",150,Shelter,120,"Emergency and Security Division, Jerusalem Municipality",31.77326342,35.21668807,9 Ovadia MeBartenora St.,,,Rehavia
Mekor Baruch,Public Shelter No.812,"<a rel=""noopener"" href=""https://www.waze.com/ul?ll=31.78771930%2C35.21514760&amp;navigate=yes&amp;zoom=16"" target=""_blank"" data-anchor=""?ll=31.78771930%2C35.21514760&amp;navigate=yes&amp;zoom=16"">109 Rashi St.</a> ",110,,88,"Emergency and Security Division, Jerusalem Municipality",31.788901763360464,35.207423347544406,109 Rashi St.,,,Makor Baruch
Malha,Public Shelter No.813,"<a rel=""noopener"" href=""https://www.waze.com/ul?ll=31.75539630%2C35.18326690&amp;navigate=yes&amp;zoom=16"" target=""_blank"" data-anchor=""?ll=31.75539630%2C35.18326690&amp;navigate=yes&amp;zoom=16"">7 Kdoshei Struma St.</a> ",,,96,"Youth Promotion Department, Jerusalem Municipality",31.7556061,35.1832669,7 Kdoshei Struma St.,,,Malha
Kiryat HaYovel,Public Shelter No.814,"<a rel=""noopener"" href=""https://www.waze.com/ul?ll=31.75928850%2C35.17715950&amp;navigate=yes&amp;zoom=16"" target=""_blank"" data-anchor=""?ll=31.75928850%2C35.17715950&amp;navigate=yes&amp;zoom=16"">3 Volta Ilit St.</a> ",130,,104,Yuvalim Community Administration,31.759254741248913,35.17712367325539,3 Volta Ilit St.,,,Kiryat Yovel
Kiryat HaYovel,Public Shelter No.814 A,"<a rel=""noopener"" href=""https://www.waze.com/ul?ll=31.75928850%2C35.17715950&amp;navigate=yes&amp;zoom=16"" target=""_blank"" data-anchor=""?ll=31.75928850%2C35.17715950&amp;navigate=yes&amp;zoom=16"">3 Volta Ilit St.</a> ",130,,104,"""Beit HaKehilot"", Yuvalim Community Administration",31.759254741248913,35.17712367325539,3 Volta Ilit St.,,,Kiryat Yovel
Kiryat HaYovel,Public Shelter No.815,"<a rel=""noopener"" href=""https://ul.waze.com/ul?place=EilBaGFyb24gUmFiaW5vdmljaCBTdCAyLCBKZXJ1c2FsZW0sIElzcmFlbCIwEi4KFAoSCS9L49ae1wIVEdPf6AFdkQ3FEAIqFAoSCSsB47qe1wIVESPv_jfqKhDz&amp;ll=31.76515860%2C35.17575110&amp;navigate=yes&amp;utm_campaign=default&amp;utm_source=waze_website&amp;utm_medium=lm_share_location?place=EilBaGFyb24gUmFiaW5vdmljaCBTdCAyLCBKZXJ1c2FsZW0sIElzcmFlbCIwEi4KFAoSCS9L49ae1wIVEdPf6AFdkQ3FEAIqFAoSCSsB47qe1wIVESPv_jfqKhDz&amp;ll=31.76515860%2C35.17575110&amp;navigate=yes&amp;utm_campaign=default&amp;utm_source=waze_website&amp;utm_medium=lm_share_location?ll=31.76214270%2C35.17558860&amp;navigate=yes&amp;zoom=16"" target=""_blank"" data-anchor=""?place=EilBaGFyb24gUmFiaW5vdmljaCBTdCAyLCBKZXJ1c2FsZW0sIElzcmFlbCIwEi4KFAoSCS9L49ae1wIVEdPf6AFdkQ3FEAIqFAoSCSsB47qe1wIVESPv_jfqKhDz&amp;ll=31.76515860%2C35.17575110&amp;navigate=yes&amp;utm_campaign=default&amp;utm_source=waze_website&amp;utm_medium=lm_share_location?ll=31.76214270%2C35.17558860&amp;navigate=yes&amp;zoom=16"">2 Aharon Rabinovich St.</a> ",168,,134,music institute,31.76531568,35.1752983,2 Aharon Rabinovich St.,,,Kiryat Yovel
"Kiryat HaYovel ",Public Shelter No.815 A,"<a rel=""noopener"" href=""https://www.waze.com/ul?ll=31.76515860%2C35.17575110&amp;navigate=yes&amp;zoom=16"" target=""_blank"" data-anchor=""?ll=31.76515860%2C35.17575110&amp;navigate=yes&amp;zoom=16"">2 Aharon Rabinovich St.</a> ",815 A,,136,"""Yad Avi"" synagogue",31.76531568,35.1752983,2 Aharon Rabinovich St.,,,Kiryat Yovel
Rehavia,Public Shelter No.816,"<a rel=""noopener"" href=""https://ul.waze.com/ul?place=ChIJM9zN09XXAhURTWSaEw6ial8&amp;ll=31.77159700%2C35.21239370&amp;navigate=yes&amp;utm_campaign=default&amp;utm_source=waze_website&amp;utm_medium=lm_share_location"" target=""_blank"" data-anchor=""?place=ChIJM9zN09XXAhURTWSaEw6ial8&amp;ll=31.77159700%2C35.21239370&amp;navigate=yes&amp;utm_campaign=default&amp;utm_source=waze_website&amp;utm_medium=lm_share_location"">50 Azza St.</a> ",120,,96,"Holocaust survivors' organization, Jerusalem   ",31.771603263030787,35.212385994916545,50 Azza St.,,,Rehavia
Katamon,Public Shelter No.817,"<a rel=""noopener"" href=""https://www.waze.com/ul?ll=31.76059170%2C35.21227390&amp;navigate=yes&amp;zoom=16"" target=""_blank"" data-anchor=""?ll=31.76059170%2C35.21227390&amp;navigate=yes&amp;zoom=16"">7 Yehoshua Ben Gamla St.</a> ",,,96,Ginot Ha'Ir Community Administration,31.760739429922552,35.21228161870976,7 Yehoshua Ben Gamla St.,,,Gonenim - Katamonim
Mahane Yehuda,Public Shelter No.821,"<a rel=""noopener"" href=""https://www.waze.com/ul?ll=31.78316880%2C35.21364550&amp;navigate=yes&amp;zoom=16"" target=""_blank"" data-anchor=""?ll=31.78316880%2C35.21364550&amp;navigate=yes&amp;zoom=16"">24 Einayim LaMishpat St.</a> ",120,,96,Lev Ha'Ir Community Administration,31.78299762,35.2136024,24 Einayim LaMishpat St.,,,City Center
Katamon,Public Shelter No.824,"<a rel=""noopener"" href=""https://www.waze.com/ul?ll=31.75522360%2C35.20861460&amp;navigate=yes&amp;zoom=16"" target=""_blank"" data-anchor=""?ll=31.75522360%2C35.20861460&amp;navigate=yes&amp;zoom=16"">31 Rashbag St.</a> ",150,,120,"Mikro Theater, Culture Division, Jerusalem Municipality",31.7554334,35.2086146,31 Rashbag St.,,,Gonenim - Katamonim
Katamon,Public Shelter No.825,"<a rel=""noopener"" href=""https://ul.waze.com/ul?place=EilFbGF6YXIgQmVuIFlhJ2lyIFN0IDI0LCBKZXJ1c2FsZW0sIElzcmFlbCIwEi4KFAoSCZtSCD3v1wIVEezBKQjiwp8LEBgqFAoSCW8IhzDv1wIVEbvxK7Yt_QLL&amp;ll=31.75342720%2C35.20165800&amp;navigate=yes&amp;utm_campaign=default&amp;utm_source=waze_website&amp;utm_medium=lm_share_location"" target=""_blank"" data-anchor=""?place=EilFbGF6YXIgQmVuIFlhJ2lyIFN0IDI0LCBKZXJ1c2FsZW0sIElzcmFlbCIwEi4KFAoSCZtSCD3v1wIVEezBKQjiwp8LEBgqFAoSCW8IhzDv1wIVEbvxK7Yt_QLL&amp;ll=31.75342720%2C35.20165800&amp;navigate=yes&amp;utm_campaign=default&amp;utm_source=waze_website&amp;utm_medium=lm_share_location"">24 Elazar Ben Yair St.</a> ",150,,120,"""Ariel"" youth movement",31.75360963,35.20166873,24 Elazar Ben Yair St.  ,,,Gonenim - Katamonim
Mea She'arim,Public Shelter No.826,"<a rel=""noopener"" href=""https://ul.waze.com/ul?place=EiRPdHNhciBIYVNmYXJpbSBTdCwgSmVydXNhbGVtLCBJc3JhZWwiLiosChQKEgmXz7dR2ykDFRH-Qe0gKLye_hIUChIJS_zBNNbXAhURy-FuRT5ib9k&amp;ll=31.78663400%2C35.22526100&amp;navigate=yes&amp;utm_campaign=default&amp;utm_source=waze_website&amp;utm_medium=lm_share_location"" target=""_blank"" data-anchor=""?place=EiRPdHNhciBIYVNmYXJpbSBTdCwgSmVydXNhbGVtLCBJc3JhZWwiLiosChQKEgmXz7dR2ykDFRH-Qe0gKLye_hIUChIJS_zBNNbXAhURy-FuRT5ib9k&amp;ll=31.78663400%2C35.22526100&amp;navigate=yes&amp;utm_campaign=default&amp;utm_source=waze_website&amp;utm_medium=lm_share_location"">6 Otsar HaSfarim St.</a> ",150,,120,"""Moreshet HaNahal"" yeshiva",31.78649294,35.2253953,6 Otsar HaSfarim St.,,,Mea Shearim
Kiryat Menachem,Public Shelter No.827,"<a rel=""noopener"" href=""https://ul.waze.com/ul?ll=31.75898740%2C35.16883090&amp;navigate=yes&amp;utm_campaign=default&amp;utm_source=waze_website&amp;utm_medium=lm_share_location"" target=""_blank"" data-anchor=""?ll=31.75898740%2C35.16883090&amp;navigate=yes&amp;utm_campaign=default&amp;utm_source=waze_website&amp;utm_medium=lm_share_location"">4 Mexico St.</a> ",,,80,"""Ariel"" youth movement",31.75898,35.16878,4 Mexico St.,,,Kiryat Menachem
Katamon,Public Shelter No.828,"<a rel=""noopener"" href=""https://www.waze.com/ul?ll=31.75991040%2C35.21317850&amp;navigate=yes&amp;zoom=16"" target=""_blank"" data-anchor=""?ll=31.75991040%2C35.21317850&amp;navigate=yes&amp;zoom=16"">10 HaRav Hasda St.</a> ",100,,80,boxing club,31.75971235,35.21328746,10 HaRav Hasda St.,,,Gonenim - Katamonim
Ir Ganim,Public Shelter No.829,"<a rel=""noopener"" href=""https://www.waze.com/ul?ll=31.75357350%2C35.16665050&amp;navigate=yes&amp;zoom=16"" target=""_blank"" data-anchor=""?ll=31.75357350%2C35.16665050&amp;navigate=yes&amp;zoom=16"">9 HaRakefet St.</a> ",100,,32,"""Chai Tayeb"" synagogue",31.75350048,35.166039,9 HaRakefet St.,,,Ir Ganim
Geula,Public Shelter No.830,"<a rel=""noopener"" href=""https://goo.gl/maps/xCPoFCgHhwo?ll=31.78767970%2C35.21894860&amp;navigate=yes&amp;zoom=16"" target=""_blank"" data-anchor=""?ll=31.78767970%2C35.21894860&amp;navigate=yes&amp;zoom=16"">25 Tsfanya St.</a> ",100,,80,Bucharim Community Administration,31.7915136,35.21721693,25 Tsfanya St.,,,Geula
Katamon,Public Shelter No.831,"<a rel=""noopener"" href=""https://www.waze.com/ul?ll=31.75589460%2C35.19546320&amp;navigate=yes&amp;zoom=16"" target=""_blank"" data-anchor=""?ll=31.75589460%2C35.19546320&amp;navigate=yes&amp;zoom=16"">7 Dov Hoz St.</a> ",150,,120,"Keshet Arts, Culture Division, Jerusalem Municipality",31.7562636,35.1954492,7 Dov Hoz St.,,,Gonenim - Katamonim
Rehavia,Public Shelter No.835,"<a rel=""noopener"" href=""https://www.waze.com/ul?ll=31.77225570%2C35.21615190&amp;navigate=yes&amp;zoom=16"" target=""_blank"" data-anchor=""?ll=31.77225570%2C35.21615190&amp;navigate=yes&amp;zoom=16"">18 Arlozorov St.</a> ",190,,152,"Emergency and Security Division, Jerusalem Municipality",31.772262658494302,35.21589868860039,18 Arlozorov St.,,,Rehavia
Baka,Public Shelter No.836,"<a rel=""noopener"" href=""https://www.waze.com/ul?ll=31.75973420%2C35.21916510&amp;navigate=yes&amp;zoom=16"" target=""_blank"" data-anchor=""?ll=31.75973420%2C35.21916510&amp;navigate=yes&amp;zoom=16"">27 Menashe St.</a> ",100,,80,"Emergency and Security Division, Jerusalem Municipality",31.75968621,35.21989257,27 Menashe St.,,,Baka
Mekor Baruch,Public Shelter No.839,"<a rel=""noopener"" href=""https://www.waze.com/ul?ll=31.78756880%2C35.20890510&amp;navigate=yes&amp;zoom=16"" target=""_blank"" data-anchor=""?ll=31.78756880%2C35.20890510&amp;navigate=yes&amp;zoom=16"">14 Tashbatz St.</a> ",100,,80,"Emergency and Security Division, Jerusalem Municipality",31.78743779,35.16634432,14 Tashbatz St.,,,Makor Baruch
,Public Shelter No.840,"<a rel=""noopener"" href=""https://www.waze.com/ul?ll=31.75297450%2C35.16710100&amp;navigate=yes&amp;zoom=16"" target=""_blank"" data-anchor=""?ll=31.75297450%2C35.16710100&amp;navigate=yes&amp;zoom=16"">70 Costa Rica St.</a> ",100,shelter,32,"""Beit Chabad"" building",31.75303908,35.16703205,70 Costa Rica St.,,,"Ir Ganim, Accessible Shelter"
Katamon,Public Shelter No.842,"<a rel=""noopener"" href=""https://www.waze.com/ul?ll=31.75301240%2C35.19558420&amp;navigate=yes&amp;zoom=16"" target=""_blank"" data-anchor=""?ll=31.75301240%2C35.19558420&amp;navigate=yes&amp;zoom=16"">8 Bar Yochai St.</a> ",174,,139,synagogue for Israelis of Ethiopian origin ,31.75311816,35.19538627,8 Bar Yochai St.,,,Gonenim - Katamonim
Ir Ganim,Public Shelter No.901,"<a rel=""noopener"" href=""https://ul.waze.com/ul?place=EiBJY2VsYW5kIFN0IDEzLCBKZXJ1c2FsZW0sIElzcmFlbCIwEi4KFAoSCVmA0b551wIVEehdh4WAcgmhEA0qFAoSCY9mtXh51wIVETGWJsiPzKKR&amp;ll=31.75910710%2C35.16652080&amp;navigate=yes&amp;utm_campaign=default&amp;utm_source=waze_website&amp;utm_medium=lm_share_location"" target=""_blank"" data-anchor=""?place=EiBJY2VsYW5kIFN0IDEzLCBKZXJ1c2FsZW0sIElzcmFlbCIwEi4KFAoSCVmA0b551wIVEehdh4WAcgmhEA0qFAoSCY9mtXh51wIVETGWJsiPzKKR&amp;ll=31.75910710%2C35.16652080&amp;navigate=yes&amp;utm_campaign=default&amp;utm_source=waze_website&amp;utm_medium=lm_share_location"">13 Iceland St&nbsp;</a> ",150,,120,"""David Moshe"" synagogue",31.75927128,35.16653153,"13 Iceland St ",,,Ir Ganim
Ir Ganim,Public Shelter No.902,"<a rel=""noopener"" href=""https://www.waze.com/ul?ll=31.75446060%2C35.16927980&amp;navigate=yes&amp;zoom=16"" target=""_blank"" data-anchor=""?ll=31.75446060%2C35.16927980&amp;navigate=yes&amp;zoom=16"">29 HaNurit St.</a> ",250,,200,"Ezra Movement, Society Division, Jerusalem Municipality",31.75487408,35.16903666,29 HaNurit St.,,,Ir Ganim
"Ein Karem ",Public Shelter No.903,"<a rel=""noopener"" href=""https://ul.waze.com/ul?venue_id=23068990.230427753.362373&amp;overview=yes&amp;utm_campaign=default&amp;utm_source=waze_website&amp;utm_medium=lm_share_location"" target=""_blank"" data-anchor=""?venue_id=23068990.230427753.362373&amp;overview=yes&amp;utm_campaign=default&amp;utm_source=waze_website&amp;utm_medium=lm_share_location"">82 Homat HaTzalafim St.</a> ",120,,96,"Artists' studio, Ein Kerem Community Center",31.76842599,35.16359315,82 Homat HaTzalafim St.,,,Ein Kerem
Geula,Public Shelter No.904,"<a rel=""noopener"" href=""https://www.waze.com/ul?ll=31.78996270%2C35.21151270&amp;navigate=yes&amp;zoom=16"" target=""_blank"" data-anchor=""?ll=31.78996270%2C35.21151270&amp;navigate=yes&amp;zoom=16"">7 HaZayit St.</a> ",125,,100,"Sanitation Division, Jerusalem Municipality",31.79038842,35.2112935,7 HaZayit St.,,,Geula
Katamon,Public Shelter No.906,"<a rel=""noopener"" href=""https://ul.waze.com/ul?preview_venue_id=23068990.230689895.203291&amp;navigate=yes&amp;utm_campaign=default&amp;utm_source=waze_website&amp;utm_medium=lm_share_location?ll=31.75330350%2C35.19301290&amp;navigate=yes&amp;zoom=16"" target=""_blank"" data-anchor=""?ll=31.75330350%2C35.19301290&amp;navigate=yes&amp;zoom=16"">2 Bar Yochai St.</a> ",100,,80,"""Gal Avraham"" synagogue",31.75430501,35.19884543,2 Bar Yochai St.,,,Gonenim - Katamonim
Mekor Baruch,Public Shelter No.909,"<a href=""https://www.waze.com/ul?ll=31.78975390%2C35.20947140&amp;navigate=yes&amp;zoom=16"" data-anchor=""?ll=31.78975390%2C35.20947140&amp;navigate=yes&amp;zoom=16"">7 Yehuda HaMaccabi St.</a> ",120,,96,"Toar Gallery, Culture Division, Jerusalem Municipality",31.788772024648548,35.209420974531916,7 Yehuda HaMaccabi St.,,,Makor Baruch
"Bukharim ",Public Shelter No.910,"<a rel=""noopener"" href=""https://ul.waze.com/ul?ll=31.79114300%2C35.21504600&amp;navigate=yes&amp;utm_campaign=default&amp;utm_source=waze_website&amp;utm_medium=lm_share_location?ll=31.79162200%2C35.21488460&amp;navigate=yes&amp;zoom=16"" target=""_blank"" data-anchor=""?ll=31.79114300%2C35.21504600&amp;navigate=yes&amp;utm_campaign=default&amp;utm_source=waze_website&amp;utm_medium=lm_share_location?ll=31.79162200%2C35.21488460&amp;navigate=yes&amp;zoom=16"">Ovadya St 22</a> ",100,,80,"Karlin Hassidic community's ""Beit Bracha""",31.79171933,35.21486308,Ovadya St 22,,,Beit Israel - Bucharim
Old Katamon,Public Shelter No.923,"<a rel=""noopener"" href=""https://www.waze.com/ul?ll=31.76182730%2C35.21393840&amp;navigate=yes&amp;zoom=16"" target=""_blank"" data-anchor=""?ll=31.76182730%2C35.21393840&amp;navigate=yes&amp;zoom=16"">15 Elazar HaModa'i St.</a> ",100,,80,"Emergency and Security Division, Jerusalem Municipality ","31.76185405030013,",35.21380463,15 Elazar HaModa'i St.,,,Gonenim - Katamonim
Zikhron Moshe,Public Shelter No.928,"<a rel=""noopener"" href=""https://www.waze.com/ul?ll=31.78725650%2C35.21731920&amp;navigate=yes&amp;zoom=16"" target=""_blank"" data-anchor=""?ll=31.78725650%2C35.21731920&amp;navigate=yes&amp;zoom=16"">8 Pri Hadash St.</a> ",130,,104,"""Or Leah"" organization",31.78741269,35.21757937,8 Pri Hadash St.,,,City Center
City Center,Public Shelter No.932,"<a rel=""noopener"" href=""https://ul.waze.com/ul?place=EiFIYUdpbGJvYSBTdCAzOCwgSmVydXNhbGVtLCBJc3JhZWwiMBIuChQKEgkhztCxKdYCFRHA7K3epOigOxAmKhQKEglpw1uyKdYCFRFW4en6mwII9Q&amp;ll=31.78300580%2C35.21286900&amp;navigate=yes&amp;utm_campaign=default&amp;utm_source=waze_website&amp;utm_medium=lm_share_location"" target=""_blank"" data-anchor=""?place=EiFIYUdpbGJvYSBTdCAzOCwgSmVydXNhbGVtLCBJc3JhZWwiMBIuChQKEgkhztCxKdYCFRHA7K3epOigOxAmKhQKEglpw1uyKdYCFRFW4en6mwII9Q&amp;ll=31.78300580%2C35.21286900&amp;navigate=yes&amp;utm_campaign=default&amp;utm_source=waze_website&amp;utm_medium=lm_share_location"">38 HaGilboa St.</a> ",100,,80,Lev Ha'Ir Community Administration,31.78310575,35.21285728,38 HaGilboa St.,,,City Center
Romema,Public Shelter No.933,"<a rel=""noopener"" href=""https://www.waze.com/ul?ll=31.79611500%2C35.19930460&amp;navigate=yes&amp;zoom=16"" target=""_blank"" data-anchor=""?ll=31.79611500%2C35.19930460&amp;navigate=yes&amp;zoom=16"">38 HaMem Gimel St.</a> ",100,,80,"""Lev Malka"" organization",31.79601192,35.1991455,38 HaMem Gimel St.,,,Romema
Mahane Yehuda,Public Shelter No.935,"<a rel=""noopener"" href=""https://www.waze.com/ul?ll=31.78237690%2C35.21106920&amp;navigate=yes&amp;zoom=16"" target=""_blank"" data-anchor=""?ll=31.78237690%2C35.21106920&amp;navigate=yes&amp;zoom=16"">28 Be'er Sheva St.</a> ",170,,136,community synagogue,31.7827654,35.21055875,28 Be'er Sheva St.,,,City Center
Old Katamon,Public Shelter No.937,"<a rel=""noopener"" href=""https://www.waze.com/ul?ll=31.76147420%2C35.20966070&amp;navigate=yes&amp;zoom=16"" target=""_blank"" data-anchor=""?ll=31.76147420%2C35.20966070&amp;navigate=yes&amp;zoom=16"">38 Hizkiyahu HaMelech St.</a> ",100,,80,"Youth Promotion Department, Education Division, Jerusalem Municipality",31.76174784,35.20969289,38 Hizkiyahu HaMelech St.,,,Gonenim - Katamonim
,Public Shelter No.939,"<a rel=""noopener"" href=""https://www.waze.com/ul?ll=31.77201690%2C35.20105720&amp;navigate=yes&amp;zoom=16"" target=""_blank"" data-anchor=""?ll=31.77201690%2C35.20105720&amp;navigate=yes&amp;zoom=16"">17 Neve Sha'anan St.</a> ",100,shelter,80,"Koom-Koom Theatre, Culture Division, Jerusalem Municipality ",31.77218105,35.20100356,17 Neve Sha'anan St.,,,"Neve Shaanan, Accessible Shelter"
Talpiot,Public Shelter No.940,"<a rel=""noopener"" href=""https://ul.waze.com/ul?ll=31.75058740%2C35.21983800&amp;navigate=yes&amp;utm_campaign=default&amp;utm_source=waze_website&amp;utm_medium=lm_share_location?ll=31.75058740%2C35.21983800&amp;navigate=yes&amp;zoom=16?ll=31.75058740%2C35.21983800&amp;navigate=yes&amp;zoom=16"" target=""_blank"" data-anchor=""?ll=31.75058740%2C35.21983800&amp;navigate=yes&amp;zoom=16"">17 Shalom Yehuda St.</a> ",100,,80,"""Ezra"" youth movement",31.751198866808615,35.22008993,17 Shalom Yehuda St.,,,Talpiyot - Arnona
"Giv'at HaVradim (Rassco) ",Public Shelter No.949,"<a rel=""noopener"" href=""https://ul.waze.com/ul?place=ChIJ_7CQUtrXAhURolBdWhnilZE&amp;ll=31.76542790%2C35.20724910&amp;navigate=yes&amp;utm_campaign=default&amp;utm_source=waze_website&amp;utm_medium=lm_share_location"" target=""_blank"" data-anchor=""?place=ChIJ_7CQUtrXAhURolBdWhnilZE&amp;ll=31.76542790%2C35.20724910&amp;navigate=yes&amp;utm_campaign=default&amp;utm_source=waze_website&amp;utm_medium=lm_share_location"">33 HaTayasim St.</a> ",100,,80,Ginot Ha'Ir Community Administration,31.765473482943282,35.20729202,33 HaTayasim St.,,,Rassco - Givat HaVradim
Shmuel HaNavi,Public Shelter No.957,"<a rel=""noopener"" href=""https://www.waze.com/ul?ll=31.79442760%2C35.21904880&amp;navigate=yes&amp;zoom=16?ll=31.79442760%2C35.21904880&amp;navigate=yes&amp;zoom=16"" target=""_blank"" data-anchor=""?ll=31.79442760%2C35.21904880&amp;navigate=yes&amp;zoom=16"">19 Avinadav St.</a> ",450,,360,"""Agudat Or HaTzafon"" synagogue",31.79461696855955,35.2189116,19 Avinadav St.,,,Shmuel HaNavi
Mahane Yehuda,Public Shelter No.961,"<a rel=""noopener"" href=""https://www.waze.com/ul?ll=31.78054400%2C35.21113920&amp;navigate=yes&amp;zoom=16"" target=""_blank"" data-anchor=""?ll=31.78054400%2C35.21113920&amp;navigate=yes&amp;zoom=16"">17 Even Sapir St.</a> ",100,,80,"""Ariel"" youth movement ",31.78076286,35.21112847,17 Even Sapir St.,,,City Center
Kiryat HaYovel,Public Shelter No.963,"<a rel=""noopener"" href=""https://www.waze.com/ul?ll=31.76588580%2C35.17830050&amp;navigate=yes&amp;zoom=16"" target=""_blank"" data-anchor=""?ll=31.76588580%2C35.17830050&amp;navigate=yes&amp;zoom=16"">11 Yisrael Zangvill St.</a> ",100,,80,"""Siach Yisrael"" synagogue",31.765835839299733,35.17732240394631,11 Yisrael Zangvill St.,,,Kiryat Yovel
Kiryat HaYovel,Public Shelter No.964,"<a rel=""noopener"" href=""https://ul.waze.com/ul?place=ChIJIZwyUYPXAhURT1-jX4DK4Oc&amp;ll=31.75728610%2C35.17602160&amp;navigate=yes&amp;utm_campaign=default&amp;utm_source=waze_website&amp;utm_medium=lm_share_location?ll=31.75752170%2C35.17606360&amp;navigate=yes&amp;zoom=16"" target=""_blank"" data-anchor=""?ll=31.75752170%2C35.17606360&amp;navigate=yes&amp;zoom=16"">8 Meir Grunwald St.</a> ",,,144,"Emergency and Security Division, Jerusalem Municipality",31.757286074113505,35.176021603946715,8 Meir Grunwald St.,,,Kiryat Yovel
Katamon,Public Shelter No.965,"<a rel=""noopener"" href=""https://www.waze.com/ul?ll=31.75388930%2C35.19664720&amp;navigate=yes&amp;zoom=16"" target=""_blank"" data-anchor=""?ll=31.75388930%2C35.19664720&amp;navigate=yes&amp;zoom=16"">7 Yitzhak Sadeh St.</a> ",100,,80,"""Havatzelet HaSharon"" synagogue",31.75373649,35.19636583,7 Yitzhak Sadeh St.,,,Gonenim - Katamonim
Katamon,Public Shelter No.967,"<a rel=""noopener"" href=""https://ul.waze.com/ul?ll=31.75851250%2C35.20964050&amp;navigate=yes&amp;utm_campaign=default&amp;utm_source=waze_website&amp;utm_medium=lm_share_location?ll=31.75795620%2C35.20953250&amp;navigate=yes&amp;zoom=16"" target=""_blank"" data-anchor=""?ll=31.75795620%2C35.20953250&amp;navigate=yes&amp;zoom=16"">7 Antignos St.</a> ",100,,80,"""Ariel"" movement",31.75888667,35.209264,7 Antignos St.,,,Gonenim - Katamonim
Katamon,Public Shelter No.969- Eligible,"<a rel=""noopener"" href=""https://www.waze.com/ul?ll=31.75672320%2C35.20875450&amp;navigate=yes&amp;zoom=16"" target=""_blank"" data-anchor=""?ll=31.75672320%2C35.20875450&amp;navigate=yes&amp;zoom=16"">16 Yossi Ben Yo'ezer St.</a> ",100,,80,"Sports Division, Jerusalem Municipality ",31.75687008,35.20875076,16 Yossi Ben Yo'ezer St.,,,Gonenim - Katamonim
Kiryat Shmuel,Public Shelter No.971,"<a rel=""noopener"" href=""https://www.waze.com/ul?ll=31.76789020%2C35.21214120&amp;navigate=yes&amp;zoom=16?ll=31.76789020%2C35.21214120&amp;navigate=yes&amp;zoom=16"" target=""_blank"" data-anchor=""?ll=31.76789020%2C35.21214120&amp;navigate=yes&amp;zoom=16"">16 HaPalmach St.</a> ",100,,80,Ginot Ha'ir Community Administration ,31.76784826023723,35.212020503946185,16 HaPalmach St.,,,"Kiryat Shmuel, Accessible Shelter"
"Rehavia ",Public Shelter No.972,"<a rel=""noopener"" href=""https://www.waze.com/ul?ll=31.77618920%2C35.21420920&amp;navigate=yes&amp;zoom=16"" target=""_blank"" data-anchor=""?ll=31.77618920%2C35.21420920&amp;navigate=yes&amp;zoom=16"">26 AlHarizi St.</a> ",100,,80,"""Beit Yael"", Culture Division, Jerusalem Municipality ",31.776280894804234,35.2142244,26 AlHarizi St.,,,Rehavia
City Center,Public Shelter No.973,"<a rel=""noopener"" href=""https://www.waze.com/ul?ll=31.77962700%2C35.21560500&amp;navigate=yes&amp;zoom=16"" target=""_blank"" data-anchor=""?ll=31.77962700%2C35.21560500&amp;navigate=yes&amp;zoom=16"">5 HaRav Aviyada St.</a> ",100,,80,"Drama school, Youth Promotion Department, Education Division, Municipality of Jerusalem ",31.77791035,35.21665559,5 HaRav Aviyada St.,,,City Center
City Center,Public Shelter No.974,"<a rel=""noopener"" href=""https://www.waze.com/ul?ll=31.77795129%2C35.21585941&amp;navigate=yes&amp;zoom=17"" target=""_blank"" data-anchor=""?ll=31.77795129%2C35.21585941&amp;navigate=yes&amp;zoom=17"">9 Shmuel Hanagid St.</a> ",100,,80,"Youth Promotion Department, Education Division, Jerusalem Municipality",31.779882942244104,35.2147312,9 Shmuel Hanagid St.,,,City Center
Romema,Public Shelter No.975 A,"<a rel=""noopener"" href=""https://www.waze.com/ul?ll=31.79447700%2C35.20174810&amp;navigate=yes&amp;zoom=16"" target=""_blank"" data-anchor=""?ll=31.79447700%2C35.20174810&amp;navigate=yes&amp;zoom=16"">15 Zichron Ya'akov St.</a> ",50,,40,"Emergency and Security Division, Jerusalem Municipality",31.79447697409672,35.20174810394518,15 Zichron Ya'akov St.,,,Romema
Romema,Public Shelter No.975 B,"<a rel=""noopener"" href=""https://www.waze.com/ul?ll=31.79422280%2C35.20198890&amp;navigate=yes&amp;zoom=16"" target=""_blank"" data-anchor=""?ll=31.79422280%2C35.20198890&amp;navigate=yes&amp;zoom=16"">17 Zichron Ya'akov St.</a> ",50,,40,"""Drachei Miryam"" organization",31.794225449819965,35.20202255,17 Zichron Ya'akov St.,,,Romema
Romema,Public Shelter No.975 C,"<a rel=""noopener"" href=""https://www.waze.com/ul?ll=31.79395480%2C35.20222220&amp;navigate=yes&amp;zoom=16"" target=""_blank"" data-anchor=""?ll=31.79395480%2C35.20222220&amp;navigate=yes&amp;zoom=16"">19 Zichron Ya'akov St.</a> ",50,,40,"Lev Malka"" organization",31.793954774097028,35.20219001743596,19 Zichron Ya'akov St.,,,Romema
Romema,Public Shelter No.975 D,"<a rel=""noopener"" href=""https://www.waze.com/ul?ll=31.79351730%2C35.20220770&amp;navigate=yes&amp;zoom=16"" target=""_blank"" data-anchor=""?ll=31.79351730%2C35.20220770&amp;navigate=yes&amp;zoom=16"">21 Zichron Ya'akov St.</a> ",50,,40,"Emergency and Security Division, Jerusalem Municipality",31.793535512093083,35.202196975108805,21 Zichron Ya'akov St.,,,Romema
,Public Shelter No.976,"<a rel=""noopener"" href=""https://ul.waze.com/ul?place=ChIJMUAAJ5PXAhURSk1hhwH4ldk&amp;ll=31.75531500%2C35.19199900&amp;navigate=yes&amp;utm_campaign=default&amp;utm_source=waze_website&amp;utm_medium=lm_share_location?ll=31.75548000%2C35.19248900&amp;navigate=yes&amp;zoom=16"" target=""_blank"" data-anchor=""?ll=31.75548000%2C35.19248900&amp;navigate=yes&amp;zoom=16"">41 Avraham ElMaliach St.</a> ",50,shelter,40,organization of Israelis of Kurdish origin,31.75536971,35.19197755,41 Avraham Elmaliach St.,,,"Gonenim - Katamonim, Accessible Shelter"
Kiryat Moshe,Public Shelter No.977,"<a rel=""noopener"" href=""https://ul.waze.com/ul?place=ChIJ3ZUHpDbWAhURHIIWFfInH14&amp;ll=31.78621350%2C35.19733430&amp;navigate=yes&amp;utm_campaign=default&amp;utm_source=waze_website&amp;utm_medium=lm_share_location?ll=31.78662370%2C35.19703000&amp;navigate=yes&amp;zoom=16"" target=""_blank"" data-anchor=""?ll=31.78662370%2C35.19703000&amp;navigate=yes&amp;zoom=16"">23 Gat St.</a> ",100,,80,Meitarim Community Administration,31.78641411,35.1973343,23 Gat St.,,,Kiryat Moshe
Kiryat Moshe,Public Shelter No.978,"<a rel=""noopener"" href=""https://ul.waze.com/ul?venue_id=23068990.230689899.323781&amp;overview=yes&amp;utm_campaign=default&amp;utm_source=waze_website&amp;utm_medium=lm_share_location"" target=""_blank"" data-anchor=""?venue_id=23068990.230689899.323781&amp;overview=yes&amp;utm_campaign=default&amp;utm_source=waze_website&amp;utm_medium=lm_share_location"">13 HaRav Tzvi Yehuda St.</a> ",100,,80,Meitarim Community Administration,31.787537495752257,35.195550088599845,13 HaRav Tzvi Yehuda St.,,,Kiryat Moshe
Romema,Public Shelter No.979,"<a rel=""noopener"" href=""https://www.waze.com/ul?ll=31.79510120%2C35.20107200&amp;navigate=yes&amp;zoom=16"" target=""_blank"" data-anchor=""?ll=31.79510120%2C35.20107200&amp;navigate=yes&amp;zoom=16"">10 Zichron Ya'akov St.</a> ",100,,80,"""Hanichei HaYeshivot Romema"" synagogue",31.795073817564752,35.201082732781515,10 Zichron Ya'akov St.,,,"Romema, Accessible Shelter"
Baka,Public Shelter No.980,"<a rel=""noopener"" href=""https://www.waze.com/ul?ll=31.75523270%2C35.21645890&amp;navigate=yes&amp;zoom=16"" target=""_blank"" data-anchor=""?ll=31.75523270%2C35.21645890&amp;navigate=yes&amp;zoom=16"">22 ​Rivka St.</a> ",100,,80,"Emergency and Security Division, Jerusalem Municipality",31.7551778,35.21700545,22 ​Rivka St.,,,Baka
Katamon,Public Shelter No.981,"<a rel=""noopener"" href=""https://ul.waze.com/ul?place=ChIJXektxJLXAhURWAH2ZCVVPQs&amp;ll=31.75430510%2C35.19200820&amp;navigate=yes&amp;utm_campaign=default&amp;utm_source=waze_website&amp;utm_medium=lm_share_location?ll=31.75481470%2C35.19195140&amp;navigate=yes&amp;zoom=16"" target=""_blank"" data-anchor=""?ll=31.75481470%2C35.19195140&amp;navigate=yes&amp;zoom=16"">27 Avraham Elmaliach St.</a> 
&nbsp; ",50,,40,"""Tzofim"", Society Division, Jerusalem Municipality",31.754341565568573,35.192008203946784,27 Avraham Elmaliach St.,,,Gonenim - Katamonim
Kiryat HaYovel,Public Shelter No.983,"<a rel=""noopener"" href=""https://www.waze.com/ul?ll=31.76654040%2C35.17699570&amp;navigate=yes&amp;zoom=16"" target=""_blank"" data-anchor=""?ll=31.76654040%2C35.17699570&amp;navigate=yes&amp;zoom=16"">10 Gordon St.</a> ",100,,80,"""Ezra"" youth movement",31.766576860739093,35.177038619291835,10 Gordon St.,,,"Kiryat Yovel, Accessible Shelter"
Baka,Public Shelter No.984,"<a rel=""noopener"" href=""https://www.waze.com/ul?ll=31.76170680%2C35.22127960&amp;navigate=yes&amp;zoom=16"" target=""_blank"" data-anchor=""?ll=31.76170680%2C35.22127960&amp;navigate=yes&amp;zoom=16"">11 Ya'el St.</a> ",160,,128,"Jerusalem Municipality, Culture Department, Beit Yael",31.76190746,35.2212796,11 Ya'el St.,,,Baka
City Center,Public Shelter No.985,"<a rel=""noopener"" href=""https://www.waze.com/ul?ll=31.78526160%2C35.21873190&amp;navigate=yes&amp;zoom=16"" target=""_blank"" data-anchor=""?ll=31.78526160%2C35.21873190&amp;navigate=yes&amp;zoom=16"">13 Strauss St.</a> ",50,,40,"""Helek MiMeni Bracha VeHesed"" organization (assistance to the needy)",31.78547133,35.21869972,13 Strauss St.,,,City Center
Katamon,Public Shelter No.987,"<a rel=""noopener"" href=""https://ul.waze.com/ul?place=EjBSYWJhbiBZb2hhbmFuIGJlbiBaYWthaSBTdCAzOCwgSmVydXNhbGVtLCBJc3JhZWwiMBIuChQKEgmdO9jZ3dcCFRELYi1aT5fa_xAmKhQKEgkfJuoF3tcCFRFvPt8-yjbViA&amp;ll=31.75924130%2C35.20897780&amp;navigate=yes&amp;utm_campaign=default&amp;utm_source=waze_website&amp;utm_medium=lm_share_location"" target=""_blank"" data-anchor=""?place=EjBSYWJhbiBZb2hhbmFuIGJlbiBaYWthaSBTdCAzOCwgSmVydXNhbGVtLCBJc3JhZWwiMBIuChQKEgmdO9jZ3dcCFRELYi1aT5fa_xAmKhQKEgkfJuoF3tcCFRFvPt8-yjbViA&amp;ll=31.75924130%2C35.20897780&amp;navigate=yes&amp;utm_campaign=default&amp;utm_source=waze_website&amp;utm_medium=lm_share_location"">38 Yohanan Ben Zakai St.</a> ",100,,80,"""Ohel Moshe"" synagogue",31.759226774112687,35.20898060394658,38 Yohanan Ben Zakai St.,,,Gonenim - Katamonim
,Public Shelter No. 991,"<a rel=""noopener"" href=""https://ul.waze.com/ul?place=EiZBdnJhaGFtIFNoYXJvbiBTdCAyLCBKZXJ1c2FsZW0sIElzcmFlbCIwEi4KFAoSCfGOul6e1wIVEbbsRYsnkxleEAIqFAoSCX05XFme1wIVEQtMU9AWQYOP&amp;ll=31.76390810%2C35.17301330&amp;navigate=yes&amp;utm_campaign=default&amp;utm_source=waze_website&amp;utm_medium=lm_share_location"" target=""_blank"" data-anchor=""?place=EiZBdnJhaGFtIFNoYXJvbiBTdCAyLCBKZXJ1c2FsZW0sIElzcmFlbCIwEi4KFAoSCfGOul6e1wIVEbbsRYsnkxleEAIqFAoSCX05XFme1wIVEQtMU9AWQYOP&amp;ll=31.76390810%2C35.17301330&amp;navigate=yes&amp;utm_campaign=default&amp;utm_source=waze_website&amp;utm_medium=lm_share_location"">Avraham Sharon&nbsp; 2</a> ",,Shelter,,,31.76412699989974,35.17301330344744,"Avraham Sharon  2, Jerusalem",,,Kiryat Yovel
Kiryat HaYovel,Public Shelter No.992,"<a rel=""noopener"" href=""https://ul.waze.com/ul?place=EjVNYSdhbG90IFlpdHNoYWsgVHN2aSBFdGluZ2VyIFN0IDE5LCBKZXJ1c2FsZW0sIElzcmFlbCIwEi4KFAoSCSOm1k2Z1wIVEeud_nszKpK9EBMqFAoSCenJ-zWZ1wIVEfz1iyEpg8r-&amp;ll=31.76325670%2C35.17748120&amp;navigate=yes&amp;utm_campaign=default&amp;utm_source=waze_website&amp;utm_medium=lm_share_location?ll=31.76306080%2C35.17719380&amp;navigate=yes&amp;zoom=16"" target=""_blank"" data-anchor=""?ll=31.76306080%2C35.17719380&amp;navigate=yes&amp;zoom=16"">19 Etinger St.</a> ",100,,80,"Emergency and Security Division, Jerusalem Municipality",31.76325667411079,35.17748120394628,19 Etinger St.,,,Kiryat Yovel
Kiryat HaYovel,Public Shelter No.993,"<a rel=""noopener"" href=""https://www.waze.com/ul?ll=31.76336200%2C35.17455000&amp;navigate=yes&amp;zoom=16?ll=31.76336200%2C35.17455000&amp;navigate=yes&amp;zoom=16"" target=""_blank"" data-anchor=""?ll=31.76336200%2C35.17455000&amp;navigate=yes&amp;zoom=16"">3 Kleinman St.</a> ",100,,80,"Mashu-Mashu Theatre, Culture Division, Jerusalem Municipality",31.76409128,35.1746754,3 Kleinman St.,,,Kiryat Yovel
Baka,Public Shelter No.995,"<a rel=""noopener"" href=""https://www.waze.com/ul?ll=31.75734040%2C35.22089700&amp;navigate=yes&amp;zoom=16"" target=""_blank"" data-anchor=""?ll=31.75734040%2C35.22089700&amp;navigate=yes&amp;zoom=16"">3 Levi St.</a> ",100,,80,Baka Community Administration,31.75755932,35.220897,3 Levi St.,,,Baka
French Hill,Public Shelter No.998,"<a rel=""noopener"" href=""https://www.waze.com/ul?ll=31.80554010%2C35.24143650&amp;navigate=yes&amp;zoom=16"" target=""_blank"" data-anchor=""?ll=31.80554010%2C35.24143650&amp;navigate=yes&amp;zoom=16"">6 Aba Berdichev St.</a> ",100,,80,"Emergency and Security Division, Jerusalem Municipality",31.80571068,35.24163187,6 Aba Berdichev St.,,,French Hill
